1 27424U 02022A   04313.48025188  .00000436  00000-0  10673-3 0  9265
2 27424  98.1784 251.3427 0000597  92.0287 268.0976 14.57137222133864
1 27424U 02022A   04313.82359377  .00000481  00000-0  11671-3 0  9284
2 27424  98.1784 251.6799 0000581  89.6656 270.4623 14.57137820133910
1 27424U 02022A   04314.37293927  .00000789  00000-0  18503-3 0  9285
2 27424  98.1786 252.2199 0000614  97.0403 263.0921 14.57140351133993
1 27424U 02022A   04314.85361522  .00001099  00000-0  25372-3 0  9305
2 27424  98.1783 252.6918 0000538  97.4273 262.7036 14.57142797134065
1 27424U 02022A   04315.40295870  .00001279  00000-0  29366-3 0  9294
2 27424  98.1787 253.2315 0000609  97.6416 262.4867 14.57144941134148
1 27424U 02022A   04315.67763035  .00001412  00000-0  32305-3 0  9315
2 27424  98.1785 253.5014 0000608  87.4768 272.6510 14.57146269134188
1 27424U 02022A   04316.43297587  .00001604  00000-0  36554-3 0  9317
2 27424  98.1789 254.2438 0000585  88.1928 271.9329 14.57149497134298
1 27424U 02022A   04316.91365055  .00001570  00000-0  35798-3 0  9340
2 27424  98.1791 254.7160 0000601  87.8633 272.2628 14.57150793134361
1 27424U 02022A   04317.32565686  .00001425  00000-0  32599-3 0  9332
2 27424  98.1792 255.1207 0000579  90.4134 269.7115 14.57151443134421
1 27424U 02022A   04317.94366696  .00001140  00000-0  26276-3 0  9351
2 27424  98.1790 255.7276 0000626  88.6006 271.5228 14.57151578134516
1 27424U 02022A   04318.42434109  .00000957  00000-0  22220-3 0  9349
2 27424  98.1793 256.2000 0000596  91.0364 269.0866 14.57151809134585
1 27424U 02022A   04318.69901247  .00000858  00000-0  20014-3 0  9361
2 27424  98.1795 256.4698 0000633  96.5995 263.5251 14.57151753134624
1 27424U 02022A   04319.24835471  .00000704  00000-0  16609-3 0  9363
2 27424  98.1795 257.0090 0000658  97.1113 263.0159 14.57152000134700
1 27424U 02022A   04319.86636489  .00000385  00000-0  95312-4 0  9385
2 27424  98.1800 257.6161 0000639  94.7406 265.3856 14.57151139134799
1 27424U 02022A   04320.41570676  .00000369  00000-0  91741-4 0  9376
2 27424  98.1803 258.1557 0000653  95.2171 264.9107 14.57151554134872
1 27424U 02022A   04320.89638071  .00000306  00000-0  77906-4 0  9404
2 27424  98.1806 258.6278 0000682 101.7683 258.3595 14.57151584134942
1 27424U 02022A   04321.44572190  .00000255  00000-0  66447-4 0  9394
2 27424  98.1808 259.1677 0000676 103.0520 257.0741 14.57151724135026
1 27424U 02022A   04322.26973400  .00000288  00000-0  73833-4 0  9432
2 27424  98.1811 259.9771 0000678 103.4463 256.6818 14.57152501135142
1 27424U 02022A   04322.47573679  .00000339  00000-0  85246-4 0  9415
2 27424  98.1814 260.1797 0000713 103.9985 256.1296 14.57152830135174
1 27424U 02022A   04322.88774250  .00000375  00000-0  93202-4 0  9431
2 27424  98.1815 260.5844 0000709 106.2441 253.8847 14.57153323135231
1 27424U 02022A   04323.43708304  .00000369  00000-0  91760-4 0  9430
2 27424  98.1817 261.1243 0000728 107.7052 252.4233 14.57153808135319
1 27424U 02022A   04323.71175325  .00000383  00000-0  94956-4 0  9449
2 27424  98.1822 261.3942 0000723 106.7949 253.3326 14.57154046135354
1 27424U 02022A   04324.26109657 -.00000035  00000-0  22353-5 0  9443
2 27424  98.1821 261.9340 0000850  95.2293 264.8991 14.57151887135430
1 27424U 02022A   04325.70311800  .00000184  00000-0  50924-4 0  9468
2 27424  98.1816 263.3541 0000908  91.1464 268.5694 14.57094714135641
1 27424U 02022A   04326.52723950  .00000306  00000-0  77920-4 0  9474
2 27424  98.1810 264.1611 0000842  92.5626 267.5608 14.57095845135767
1 27424U 02022A   04326.87059221  .00000788  00000-0  18486-3 0  9481
2 27424  98.1809 264.4985 0000801  86.9153 273.2196 14.57098002135819
1 27424U 02022A   04327.41995268  .00000719  00000-0  16964-3 0  9485
2 27424  98.1808 265.0379 0000788  83.5923 276.5357 14.57098614135896
1 27424U 02022A   04327.83197386  .00000616  00000-0  14680-3 0  9496
2 27424  98.1810 265.4427 0000795  85.4625 274.6646 14.57098704135952
1 27424U 02022A   04328.31266568  .00000539  00000-0  12960-3 0  9492
2 27424  98.1806 265.9145 0000792  84.7772 275.3513 14.57098874136029
1 27424U 02022A   04328.86202756  .00000450  00000-0  10991-3 0  9518
2 27424  98.1814 266.4543 0000776  81.3662 278.7633 14.57099047136101
1 27424U 02022A   04329.41138867  .00000449  00000-0  10958-3 0  9501
2 27424  98.1815 266.9940 0000795  84.6010 275.5286 14.57099599136181
1 27424U 02022A   04329.75473918  .00000451  00000-0  11017-3 0  9529
2 27424  98.1817 267.3313 0000792  86.9821 273.1470 14.57099926136233
1 27424U 02022A   04330.30410018  .00000359  00000-0  89669-4 0  9520
2 27424  98.1817 267.8709 0000757  91.2127 268.9169 14.57100134136316
1 27424U 02022A   04330.92213092  .00000433  00000-0  10619-3 0  9544
2 27424  98.1823 268.4780 0000725  89.9285 270.2011 14.57100942136402
1 27424U 02022A   04331.47149115  .00000473  00000-0  11496-3 0  9536
2 27424  98.1823 269.0178 0000753  89.2803 270.8482 14.57101603136481
1 27424U 02022A   04331.74617130  .00000514  00000-0  12417-3 0  9555
2 27424  98.1821 269.2876 0000747  88.7935 271.3359 14.57102112136529
1 27424U 02022A   04332.02085117  .00000564  00000-0  13525-3 0  9568
2 27424  98.1822 269.5574 0000734  88.7453 271.3843 14.57102683136564
1 27424U 02022A   04332.29553087  .00000524  00000-0  12628-3 0  9551
2 27424  98.1823 269.8274 0000726  88.1439 271.9846 14.57102911136602
1 27424U 02022A   04332.84489075  .00000540  00000-0  12979-3 0  9576
2 27424  98.1828 270.3672 0000753  95.1143 265.0159 14.57103573136680
1 27424U 02022A   04333.46291978  .00000577  00000-0  13811-3 0  9563
2 27424  98.1831 270.9745 0000767  96.2667 263.8626 14.57104472136773
1 27424U 02022A   04334.42429767  .00000651  00000-0  15453-3 0  9588
2 27424  98.1832 271.9193 0000780 100.9408 259.1896 14.57106148136918
1 27424U 02022A   04334.69897663  .00000649  00000-0  15406-3 0  9609
2 27424  98.1836 272.1891 0000776 101.3719 258.7564 14.57106470136954
1 27424U 02022A   04335.52301402  .00000568  00000-0  13603-3 0  9600
2 27424  98.1835 272.9985 0000802 105.2253 254.9011 14.57107087137075
1 27424U 02022A   04335.86636335  .00000561  00000-0  13445-3 0  9622
2 27424  98.1837 273.3359 0000806 107.3625 252.7669 14.57107513137122
1 27424U 02022A   04336.41572116  .00000604  00000-0  14401-3 0  9621
2 27424  98.1839 273.8758 0000859 109.0332 251.0969 14.57108425137201
1 27424U 02022A   04336.75906955  .00000602  00000-0  14357-3 0  9639
2 27424  98.1841 274.2131 0000868 110.2217 249.9077 14.57108838137259
1 27424U 02022A   04337.37709694  .00000462  00000-0  11256-3 0  9638
2 27424  98.1841 274.8205 0000879 111.7163 248.4121 14.57108911137341
1 27424U 02022A   04337.85778492  .00000471  00000-0  11452-3 0  9642
2 27424  98.1843 275.2929 0000864 109.1851 250.9443 14.57109452137414
1 27424U 02022A   04338.47581175  .00000465  00000-0  11324-3 0  9642
2 27424  98.1842 275.8999 0000872 107.2489 252.8801 14.57110071137509
1 27424U 02022A   04338.75049039  .00000476  00000-0  11568-3 0  9665
2 27424  98.1843 276.1697 0000871 105.0182 255.1109 14.57110365137541
1 27424U 02022A   04339.29984737  .00000427  00000-0  10467-3 0  9661
2 27424  98.1846 276.7099 0000850 104.3869 255.7427 14.57110802137621
1 27424U 02022A   04339.71186492  .00000361  00000-0  90171-4 0  9679
2 27424  98.1843 277.1147 0000879 103.2651 256.8619 14.57110737137683
1 27424U 02022A   04340.32989162  .00000383  00000-0  94979-4 0  9677
2 27424  98.1839 277.7221 0000867 100.7054 259.4248 14.57111480137776
1 27424U 02022A   04340.94791810  .00000420  00000-0  10312-3 0  9700
2 27424  98.1837 278.3296 0000866 103.6750 256.4572 14.57112079137869
1 27424U 02022A   04341.49727372  .00000358  00000-0  89392-4 0  9696
2 27424  98.1840 278.8695 0000865 103.2930 256.8354 14.57112320137946
1 27424U 02022A   04341.84062160  .00000346  00000-0  86769-4 0  9728
2 27424  98.1838 279.2068 0000878 104.0178 256.1117 14.57112538137995
1 27424U 02022A   04342.38997768  .00000352  00000-0  88085-4 0  9729
2 27424  98.1836 279.7467 0000866 103.3320 256.7974 14.57112997138075
1 27424U 02022A   04342.73332521  .00000393  00000-0  97149-4 0  9735
2 27424  98.1832 280.0839 0000853 100.2285 259.9013 14.57113458138129
1 27424U 02022A   04343.35135014  .00000439  00000-0  10742-3 0  9736
2 27424  98.1834 280.6916 0000891 105.0132 255.1181 14.57114374138211
1 27424U 02022A   04343.90070560  .00000370  00000-0  92122-4 0  9750
2 27424  98.1833 281.2314 0000892 103.9636 256.1651 14.57114397138292
1 27424U 02022A   04344.38139186  .00000321  00000-0  81290-4 0  9742
2 27424  98.1832 281.7037 0000893 104.9105 255.2195 14.57114621138362
1 27424U 02022A   04344.72473893  .00000334  00000-0  84162-4 0  9774
2 27424  98.1835 282.0410 0000883 103.8574 256.2720 14.57114870138418
1 27424U 02022A   04345.54877154  .00000364  00000-0  90875-4 0  9774
2 27424  98.1836 282.8510 0000896 103.1973 256.9319 14.57115641138539
1 27424U 02022A   04345.82344917  .00000340  00000-0  85553-4 0  9794
2 27424  98.1836 283.1208 0000893 100.4111 259.7186 14.57115802138574
1 27424U 02022A   04346.37280419  .00000313  00000-0  79368-4 0  9798
2 27424  98.1836 283.6608 0000898 102.1550 257.9758 14.57116153138658
1 27424U 02022A   04346.92215901  .00000313  00000-0  79541-4 0  9819
2 27424  98.1839 284.2006 0000885  98.6972 261.4325 14.57116436138736
1 27424U 02022A   04347.40284413  .00000336  00000-0  84499-4 0  9809
2 27424  98.1843 284.6732 0000887  94.2077 265.9208 14.57116872138802
1 27424U 02022A   04347.74619101  .00000320  00000-0  80996-4 0  9825
2 27424  98.1844 285.0105 0000899  95.7428 264.3868 14.57117012138858
1 27424U 02022A   04348.29554548  .00000302  00000-0  76977-4 0  9823
2 27424  98.1848 285.5505 0000909  97.3671 262.7643 14.57117461138931
1 27424U 02022A   04348.91356939  .00000274  00000-0  70707-4 0  9841
2 27424  98.1855 286.1578 0000911 100.8502 259.2817 14.57117583139022
